{"fetched_at":"2026-03-29T16:36:15Z","count":15609,"tles":[{"name":"STARLINK-35541","line1":"1 66235U 25245B   26087.79012854  .00031465  00000+0  10696-2 0  9991","line2":"2 66235  53.1573 194.9833 0000870  66.5681 293.5411 15.30212135 24130","category":"Starlink"}]}